[{"OBJECT_NAME":"LEMUR-2-PETERG","OBJECT_ID":"2017-042S","EPOCH":"2026-03-09T11:34:35.656032","MEAN_MOTION":15.29611459,"ECCENTRICITY":0.00037,"INCLINATION":97.398,"RA_OF_ASC_NODE":253.6596,"ARG_OF_PERICENTER":341.6938,"MEAN_ANOMALY":18.4169,"EPHEMERIS_TYPE":0,"CLASSIFICATION_TYPE":"U","NORAD_CAT_ID":42841,"ELEMENT_SET_NO":999,"REV_AT_EPOCH":47317,"BSTAR":0.00081076471,"MEAN_MOTION_DOT":0.0002324,"MEAN_MOTION_DDOT":0},{"OBJECT_NAME":"STARLINK-31284","OBJECT_ID":"2024-049R","EPOCH":"2026-03-09T04:56:21.600384","MEAN_MOTION":15.27573933,"ECCENTRICITY":9.172e-5,"INCLINATION":43.0033,"RA_OF_ASC_NODE":146.134,"ARG_OF_PERICENTER":212.5513,"MEAN_ANOMALY":147.5282,"EPHEMERIS_TYPE":0,"CLASSIFICATION_TYPE":"U","NORAD_CAT_ID":59246,"ELEMENT_SET_NO":999,"REV_AT_EPOCH":11232,"BSTAR":-6.7171445e-5,"MEAN_MOTION_DOT":-2.109e-5,"MEAN_MOTION_DDOT":0}]
